{
  "type": "FeatureCollection",
  "features": [
    {
      "type": "Feature",
      "properties": {
        "norad_id": 15362,
        "name": "NOVA 3",
        "group": "nnss",
        "lat": 34.7926325106175,
        "lon": -99.3753752049443,
        "alt_km": 1193.7456998253238,
        "timestamp": "2025-12-13T03:42:11.541527+00:00",
        "meta_object_name": "NOVA 3",
        "meta_object_id": "1984-110A",
        "meta_epoch": "2025-12-12T07:18:06.499296",
        "meta_mean_motion": 13.23044516,
        "meta_eccentricity": 0.00305194,
        "meta_inclination": 90.1223,
        "meta_ra_of_asc_node": 80.5296,
        "meta_arg_of_pericenter": 333.1648,
        "meta_mean_anomaly": 85.4695,
        "meta_ephemeris_type": 0,
        "meta_classification_type": "U",
        "meta_norad_cat_id": 15362,
        "meta_element_set_no": 999,
        "meta_rev_at_epoch": 98693,
        "meta_bstar": 0.00023973967,
        "meta_mean_motion_dot": 1.09e-06,
        "meta_mean_motion_ddot": 0,
        "tle_line1": "1 15362U 84110A   25346.30424189  .00000109  00000+0  23974-3 0  9999",
        "tle_line2": "2 15362  90.1223  80.5296 0030519 333.1648  85.4695 13.23044516986933"
      },
      "geometry": {
        "type": "Point",
        "coordinates": [
          -99.3753752049443,
          34.7926325106175
        ]
      }
    },
    {
      "type": "Feature",
      "properties": {
        "norad_id": 15935,
        "name": "OSCAR 30",
        "group": "nnss",
        "lat": -65.90397049232317,
        "lon": -80.51522563891866,
        "alt_km": 1252.7171165504951,
        "timestamp": "2025-12-13T03:42:11.541538+00:00",
        "meta_object_name": "OSCAR 30",
        "meta_object_id": "1985-066A",
        "meta_epoch": "2025-12-12T06:51:19.621728",
        "meta_mean_motion": 13.36078331,
        "meta_eccentricity": 0.0169419,
        "meta_inclination": 90.1649,
        "meta_ra_of_asc_node": 99.8396,
        "meta_arg_of_pericenter": 85.1751,
        "meta_mean_anomaly": 304.4252,
        "meta_ephemeris_type": 0,
        "meta_classification_type": "U",
        "meta_norad_cat_id": 15935,
        "meta_element_set_no": 999,
        "meta_rev_at_epoch": 96447,
        "meta_bstar": 0.0002486342,
        "meta_mean_motion_dot": 1.48e-06,
        "meta_mean_motion_ddot": 0,
        "tle_line1": "1 15935U 85066A   25346.28564377  .00000148  00000+0  24863-3 0  9998",
        "tle_line2": "2 15935  90.1649  99.8396 0169419  85.1751 304.4252 13.36078331964470"
      },
      "geometry": {
        "type": "Point",
        "coordinates": [
          -80.51522563891866,
          -65.90397049232317
        ]
      }
    },
    {
      "type": "Feature",
      "properties": {
        "norad_id": 15936,
        "name": "OSCAR 24",
        "group": "nnss",
        "lat": -41.183045654563664,
        "lon": 92.46935415976618,
        "alt_km": 1212.4260688007935,
        "timestamp": "2025-12-13T03:42:11.541549+00:00",
        "meta_object_name": "OSCAR 24",
        "meta_object_id": "1985-066B",
        "meta_epoch": "2025-12-12T06:39:11.310336",
        "meta_mean_motion": 13.35935715,
        "meta_eccentricity": 0.01704872,
        "meta_inclination": 90.179,
        "meta_ra_of_asc_node": 92.2972,
        "meta_arg_of_pericenter": 91.632,
        "meta_mean_anomaly": 333.0245,
        "meta_ephemeris_type": 0,
        "meta_classification_type": "U",
        "meta_norad_cat_id": 15936,
        "meta_element_set_no": 999,
        "meta_rev_at_epoch": 96637,
        "meta_bstar": 0.00020099718,
        "meta_mean_motion_dot": 1.22e-06,
        "meta_mean_motion_ddot": 0,
        "tle_line1": "1 15936U 85066B   25346.27721424  .00000122  00000+0  20100-3 0  9998",
        "tle_line2": "2 15936  90.1790  92.2972 0170487  91.6320 333.0245 13.35935715966374"
      },
      "geometry": {
        "type": "Point",
        "coordinates": [
          92.46935415976618,
          -41.183045654563664
        ]
      }
    },
    {
      "type": "Feature",
      "properties": {
        "norad_id": 17070,
        "name": "POLAR BEAR",
        "group": "nnss",
        "lat": -35.60408908437504,
        "lon": 4.031041651276084,
        "alt_km": 990.973749202838,
        "timestamp": "2025-12-13T03:42:11.541559+00:00",
        "meta_object_name": "POLAR BEAR",
        "meta_object_id": "1986-088A",
        "meta_epoch": "2025-12-12T02:47:54.957984",
        "meta_mean_motion": 13.75250552,
        "meta_eccentricity": 0.00409384,
        "meta_inclination": 89.6174,
        "meta_ra_of_asc_node": 183.7987,
        "meta_arg_of_pericenter": 121.0427,
        "meta_mean_anomaly": 359.6166,
        "meta_ephemeris_type": 0,
        "meta_classification_type": "U",
        "meta_norad_cat_id": 17070,
        "meta_element_set_no": 999,
        "meta_rev_at_epoch": 95970,
        "meta_bstar": 0.00014213835,
        "meta_mean_motion_dot": 1.49e-06,
        "meta_mean_motion_ddot": 0,
        "tle_line1": "1 17070U 86088A   25346.11660831  .00000149  00000+0  14214-3 0  9999",
        "tle_line2": "2 17070  89.6174 183.7987 0040938 121.0427 359.6166 13.75250552959707"
      },
      "geometry": {
        "type": "Point",
        "coordinates": [
          4.031041651276084,
          -35.60408908437504
        ]
      }
    },
    {
      "type": "Feature",
      "properties": {
        "norad_id": 18361,
        "name": "OSCAR 27",
        "group": "nnss",
        "lat": 66.7309467875804,
        "lon": 78.41717353381465,
        "alt_km": 1154.649255167862,
        "timestamp": "2025-12-13T03:42:11.541569+00:00",
        "meta_object_name": "OSCAR 27",
        "meta_object_id": "1987-080A",
        "meta_epoch": "2025-12-12T05:56:21.113376",
        "meta_mean_motion": 13.44906562,
        "meta_eccentricity": 0.01028798,
        "meta_inclination": 90.3742,
        "meta_ra_of_asc_node": 79.254,
        "meta_arg_of_pericenter": 225.2341,
        "meta_mean_anomaly": 134.0404,
        "meta_ephemeris_type": 0,
        "meta_classification_type": "U",
        "meta_norad_cat_id": 18361,
        "meta_element_set_no": 999,
        "meta_rev_at_epoch": 87550,
        "meta_bstar": 0.0002449176,
        "meta_mean_motion_dot": 1.56e-06,
        "meta_mean_motion_ddot": 0,
        "tle_line1": "1 18361U 87080A   25346.24746659  .00000156  00000+0  24492-3 0  9990",
        "tle_line2": "2 18361  90.3742  79.2540 0102879 225.2341 134.0404 13.44906562875500"
      },
      "geometry": {
        "type": "Point",
        "coordinates": [
          78.41717353381465,
          66.7309467875804
        ]
      }
    },
    {
      "type": "Feature",
      "properties": {
        "norad_id": 18362,
        "name": "OSCAR 29",
        "group": "nnss",
        "lat": 78.4855783875962,
        "lon": 77.90353278798355,
        "alt_km": 1161.2863789378562,
        "timestamp": "2025-12-13T03:42:11.541580+00:00",
        "meta_object_name": "OSCAR 29",
        "meta_object_id": "1987-080B",
        "meta_epoch": "2025-12-12T06:08:23.049312",
        "meta_mean_motion": 13.44448315,
        "meta_eccentricity": 0.0103888,
        "meta_inclination": 90.3752,
        "meta_ra_of_asc_node": 79.7131,
        "meta_arg_of_pericenter": 248.5628,
        "meta_mean_anomaly": 164.1356,
        "meta_ephemeris_type": 0,
        "meta_classification_type": "U",
        "meta_norad_cat_id": 18362,
        "meta_element_set_no": 999,
        "meta_rev_at_epoch": 87503,
        "meta_bstar": 0.00022124372,
        "meta_mean_motion_dot": 1.4e-06,
        "meta_mean_motion_ddot": 0,
        "tle_line1": "1 18362U 87080B   25346.25582233  .00000140  00000+0  22124-3 0  9991",
        "tle_line2": "2 18362  90.3752  79.7131 0103888 248.5628 164.1356 13.44448315875035"
      },
      "geometry": {
        "type": "Point",
        "coordinates": [
          77.90353278798355,
          78.4855783875962
        ]
      }
    },
    {
      "type": "Feature",
      "properties": {
        "norad_id": 19070,
        "name": "OSCAR 23",
        "group": "nnss",
        "lat": -9.826519377265404,
        "lon": -163.64997031041887,
        "alt_km": 1018.9633670277717,
        "timestamp": "2025-12-13T03:42:11.541590+00:00",
        "meta_object_name": "OSCAR 23",
        "meta_object_id": "1988-033A",
        "meta_epoch": "2025-12-12T03:35:59.447904",
        "meta_mean_motion": 13.27787071,
        "meta_eccentricity": 0.01894878,
        "meta_inclination": 90.3213,
        "meta_ra_of_asc_node": 16.3744,
        "meta_arg_of_pericenter": 181.559,
        "meta_mean_anomaly": 249.9206,
        "meta_ephemeris_type": 0,
        "meta_classification_type": "U",
        "meta_norad_cat_id": 19070,
        "meta_element_set_no": 999,
        "meta_rev_at_epoch": 82245,
        "meta_bstar": 0.00019380236,
        "meta_mean_motion_dot": 1.05e-06,
        "meta_mean_motion_ddot": 0,
        "tle_line1": "1 19070U 88033A   25346.14999361  .00000105  00000+0  19380-3 0  9990",
        "tle_line2": "2 19070  90.3213  16.3744 0189487 181.5590 249.9206 13.27787071822454"
      },
      "geometry": {
        "type": "Point",
        "coordinates": [
          -163.64997031041887,
          -9.826519377265404
        ]
      }
    }
  ]
}